[{"OBJECT_NAME":"STARLINK-1993","OBJECT_ID":"2021-009AS","EPOCH":"2026-03-09T22:34:43.517280","MEAN_MOTION":15.68612589,"ECCENTRICITY":0.00017457,"INCLINATION":53.0469,"RA_OF_ASC_NODE":338.0743,"ARG_OF_PERICENTER":302.7069,"MEAN_ANOMALY":57.3778,"EPHEMERIS_TYPE":0,"CLASSIFICATION_TYPE":"U","NORAD_CAT_ID":47588,"ELEMENT_SET_NO":999,"REV_AT_EPOCH":28143,"BSTAR":0.0010228331,"MEAN_MOTION_DOT":0.00119587,"MEAN_MOTION_DDOT":0},{"OBJECT_NAME":"STARLINK-11206 [DTC]","OBJECT_ID":"2024-133M","EPOCH":"2026-03-09T11:03:25.299936","MEAN_MOTION":15.69705675,"ECCENTRICITY":0.00012852,"INCLINATION":53.1576,"RA_OF_ASC_NODE":147.6766,"ARG_OF_PERICENTER":96.026,"MEAN_ANOMALY":264.0904,"EPHEMERIS_TYPE":0,"CLASSIFICATION_TYPE":"U","NORAD_CAT_ID":60312,"ELEMENT_SET_NO":999,"REV_AT_EPOCH":9369,"BSTAR":2.6489282e-5,"MEAN_MOTION_DOT":2.621e-5,"MEAN_MOTION_DDOT":0}]
